{
    "links": {
        "self": "http://www.neowsapp.com/rest/v1/neo/3297205?api_key=iIulBulltgU6a56xZRHN4H3l9WmuAYTsLGpBGhQ2"
    },
    "id": "3297205",
    "neo_reference_id": "3297205",
    "name": "(2005 UG3)",
    "designation": "2005 UG3",
    "nasa_jpl_url": "http://ssd.jpl.nasa.gov/sbdb.cgi?sstr=3297205",
    "absolute_magnitude_h": 25.5,
    "estimated_diameter": {
        "kilometers": {
            "estimated_diameter_min": 0.0211132445,
            "estimated_diameter_max": 0.0472106499
        },
        "meters": {
            "estimated_diameter_min": 21.113244479,
            "estimated_diameter_max": 47.2106498806
        },
        "miles": {
            "estimated_diameter_min": 0.0131191578,
            "estimated_diameter_max": 0.0293353287
        },
        "feet": {
            "estimated_diameter_min": 69.2691770164,
            "estimated_diameter_max": 154.8905885541
        }
    },
    "is_potentially_hazardous_asteroid": false,
    "close_approach_data": [
        {
            "close_approach_date": "1959-12-29",
            "close_approach_date_full": "1959-Dec-29 01:18",
            "epoch_date_close_approach": -315873720000,
            "relative_velocity": {
                "kilometers_per_second": "16.2085318179",
                "kilometers_per_hour": "58350.7145445804",
                "miles_per_hour": "36256.8648235477"
            },
            "miss_distance": {
                "astronomical": "0.3329927133",
                "lunar": "129.5341654737",
                "kilometers": "49815000.635200671",
                "miles": "30953606.0569284198"
            },
            "orbiting_body": "Earth"
        },
        {
            "close_approach_date": "2005-10-26",
            "close_approach_date_full": "2005-Oct-26 08:09",
            "epoch_date_close_approach": 1130314140000,
            "relative_velocity": {
                "kilometers_per_second": "8.7666737609",
                "kilometers_per_hour": "31560.0255393906",
                "miles_per_hour": "19610.1725358508"
            },
            "miss_distance": {
                "astronomical": "0.0277367769",
                "lunar": "10.7896062141",
                "kilometers": "4149362.744905203",
                "miles": "2578294.4525816814"
            },
            "orbiting_body": "Earth"
        }
    ],
    "orbital_data": {
        "orbit_id": "9",
        "orbit_determination_date": "2017-04-06 09:10:07",
        "first_observation_date": "2005-10-25",
        "last_observation_date": "2005-10-29",
        "data_arc_in_days": 4,
        "observations_used": 22,
        "orbit_uncertainty": "8",
        "minimum_orbit_intersection": ".0224605",
        "jupiter_tisserand_invariant": "3.636",
        "epoch_osculation": "2453670.5",
        "eccentricity": ".5058343518841408",
        "semi_major_axis": "2.021498734373977",
        "inclination": "8.905765638027804",
        "ascending_node_longitude": "212.432536211069",
        "orbital_period": "1049.805001517607",
        "perihelion_distance": ".9989552322373052",
        "perihelion_argument": "200.4080671364164",
        "aphelion_distance": "3.044042236510648",
        "perihelion_time": "2453685.806180795292",
        "mean_anomaly": "354.7511918133944",
        "mean_motion": ".3429208276580706",
        "equinox": "J2000",
        "orbit_class": {
            "orbit_class_type": "APO",
            "orbit_class_description": "Near-Earth asteroid orbits which cross the Earth’s orbit similar to that of 1862 Apollo",
            "orbit_class_range": "a (semi-major axis) > 1.0 AU; q (perihelion) < 1.017 AU"
        }
    },
    "is_sentry_object": false
}